[
  {
    "OBJECT_NAME": "STARLINK-36238",
    "OBJECT_ID": "2026-070X",
    "EPOCH": "2026-04-17T06:00:02.999808",
    "MEAN_MOTION": 15.82292957,
    "ECCENTRICITY": 4.931e-05,
    "INCLINATION": 53.1592,
    "RA_OF_ASC_NODE": 190.9616,
    "ARG_OF_PERICENTER": 85.8643,
    "MEAN_ANOMALY": 305.8924,
    "EPHEMERIS_TYPE": 0,
    "CLASSIFICATION_TYPE": "U",
    "NORAD_CAT_ID": 68563,
    "ELEMENT_SET_NO": 999,
    "REV_AT_EPOCH": 353,
    "BSTAR": -0.0070311458,
    "MEAN_MOTION_DOT": -0.01304423,
    "MEAN_MOTION_DDOT": 0
  },
  {
    "OBJECT_NAME": "STARLINK-37008",
    "OBJECT_ID": "2026-070Y",
    "EPOCH": "2026-04-17T06:00:02.999808",
    "MEAN_MOTION": 15.82339808,
    "ECCENTRICITY": 5.699e-05,
    "INCLINATION": 53.1593,
    "RA_OF_ASC_NODE": 190.9444,
    "ARG_OF_PERICENTER": 87.4818,
    "MEAN_ANOMALY": 312.7485,
    "EPHEMERIS_TYPE": 0,
    "CLASSIFICATION_TYPE": "U",
    "NORAD_CAT_ID": 68564,
    "ELEMENT_SET_NO": 999,
    "REV_AT_EPOCH": 358,
    "BSTAR": -0.0070515354,
    "MEAN_MOTION_DOT": -0.01310335,
    "MEAN_MOTION_DDOT": 0
  },
  {
    "OBJECT_NAME": "STARLINK-37161",
    "OBJECT_ID": "2026-070Z",
    "EPOCH": "2026-04-17T06:00:02.999808",
    "MEAN_MOTION": 15.82368044,
    "ECCENTRICITY": 7.222e-05,
    "INCLINATION": 53.1592,
    "RA_OF_ASC_NODE": 190.9351,
    "ARG_OF_PERICENTER": 88.5585,
    "MEAN_ANOMALY": 315.8948,
    "EPHEMERIS_TYPE": 0,
    "CLASSIFICATION_TYPE": "U",
    "NORAD_CAT_ID": 68565,
    "ELEMENT_SET_NO": 999,
    "REV_AT_EPOCH": 358,
    "BSTAR": -0.0070496099,
    "MEAN_MOTION_DOT": -0.01311648,
    "MEAN_MOTION_DDOT": 0
  },
  {
    "OBJECT_NAME": "STARLINK-37212",
    "OBJECT_ID": "2026-070AA",
    "EPOCH": "2026-04-17T06:00:02.999808",
    "MEAN_MOTION": 15.82461469,
    "ECCENTRICITY": 6.827e-05,
    "INCLINATION": 53.1592,
    "RA_OF_ASC_NODE": 190.9267,
    "ARG_OF_PERICENTER": 92.5672,
    "MEAN_ANOMALY": 315.9516,
    "EPHEMERIS_TYPE": 0,
    "CLASSIFICATION_TYPE": "U",
    "NORAD_CAT_ID": 68566,
    "ELEMENT_SET_NO": 999,
    "REV_AT_EPOCH": 358,
    "BSTAR": -0.006695748,
    "MEAN_MOTION_DOT": -0.01258391,
    "MEAN_MOTION_DDOT": 0
  },
  {
    "OBJECT_NAME": "STARLINK-37261",
    "OBJECT_ID": "2026-070AB",
    "EPOCH": "2026-04-17T06:00:02.999808",
    "MEAN_MOTION": 15.82434492,
    "ECCENTRICITY": 8.272e-05,
    "INCLINATION": 53.1592,
    "RA_OF_ASC_NODE": 190.9177,
    "ARG_OF_PERICENTER": 89.3822,
    "MEAN_ANOMALY": 323.4511,
    "EPHEMERIS_TYPE": 0,
    "CLASSIFICATION_TYPE": "U",
    "NORAD_CAT_ID": 68567,
    "ELEMENT_SET_NO": 999,
    "REV_AT_EPOCH": 358,
    "BSTAR": -0.0066019455,
    "MEAN_MOTION_DOT": -0.01241466,
    "MEAN_MOTION_DDOT": 0
  },
  {
    "OBJECT_NAME": "STARLINK-37283",
    "OBJECT_ID": "2026-070AC",
    "EPOCH": "2026-04-17T06:00:02.999808",
    "MEAN_MOTION": 15.80898371,
    "ECCENTRICITY": 0.00010385,
    "INCLINATION": 53.1594,
    "RA_OF_ASC_NODE": 191.3347,
    "ARG_OF_PERICENTER": 99.8007,
    "MEAN_ANOMALY": 111.9008,
    "EPHEMERIS_TYPE": 0,
    "CLASSIFICATION_TYPE": "U",
    "NORAD_CAT_ID": 68568,
    "ELEMENT_SET_NO": 999,
    "REV_AT_EPOCH": 358,
    "BSTAR": -0.00023912335,
    "MEAN_MOTION_DOT": -0.00047689,
    "MEAN_MOTION_DDOT": 0
  },
  {
    "OBJECT_NAME": "STARLINK-37256",
    "OBJECT_ID": "2026-070AD",
    "EPOCH": "2026-04-17T06:00:02.999808",
    "MEAN_MOTION": 15.80882108,
    "ECCENTRICITY": 0.00012132,
    "INCLINATION": 53.1594,
    "RA_OF_ASC_NODE": 191.3431,
    "ARG_OF_PERICENTER": 104.0508,
    "MEAN_ANOMALY": 103.388,
    "EPHEMERIS_TYPE": 0,
    "CLASSIFICATION_TYPE": "U",
    "NORAD_CAT_ID": 68569,
    "ELEMENT_SET_NO": 999,
    "REV_AT_EPOCH": 358,
    "BSTAR": -0.00011197799,
    "MEAN_MOTION_DOT": -0.00022751,
    "MEAN_MOTION_DDOT": 0
  },
  {
    "OBJECT_NAME": "STARLINK-37228",
    "OBJECT_ID": "2026-070AE",
    "EPOCH": "2026-04-17T06:00:02.999808",
    "MEAN_MOTION": 15.80901912,
    "ECCENTRICITY": 0.00010712,
    "INCLINATION": 53.1594,
    "RA_OF_ASC_NODE": 191.326,
    "ARG_OF_PERICENTER": 70.7358,
    "MEAN_ANOMALY": 145.2384,
    "EPHEMERIS_TYPE": 0,
    "CLASSIFICATION_TYPE": "U",
    "NORAD_CAT_ID": 68570,
    "ELEMENT_SET_NO": 999,
    "REV_AT_EPOCH": 358,
    "BSTAR": -0.00026380651,
    "MEAN_MOTION_DOT": -0.00052519,
    "MEAN_MOTION_DDOT": 0
  },
  {
    "OBJECT_NAME": "MERIDIAN-M 21L",
    "OBJECT_ID": "2026-071A",
    "EPOCH": "2026-04-14T09:33:05.456448",
    "MEAN_MOTION": 1.98596107,
    "ECCENTRICITY": 0.72346467,
    "INCLINATION": 62.779,
    "RA_OF_ASC_NODE": 237.3403,
    "ARG_OF_PERICENTER": 284.9939,
    "MEAN_ANOMALY": 10.816,
    "EPHEMERIS_TYPE": 0,
    "CLASSIFICATION_TYPE": "U",
    "NORAD_CAT_ID": 68571,
    "ELEMENT_SET_NO": 999,
    "REV_AT_EPOCH": 23,
    "BSTAR": 0.0080351969,
    "MEAN_MOTION_DOT": 4.89e-06,
    "MEAN_MOTION_DDOT": 0
  },
  {
    "OBJECT_NAME": "FREGAT R/B",
    "OBJECT_ID": "2026-071B",
    "EPOCH": "2026-04-03T07:42:42.175872",
    "MEAN_MOTION": 2.01041412,
    "ECCENTRICITY": 0.73138199,
    "INCLINATION": 63.0589,
    "RA_OF_ASC_NODE": 237.9448,
    "ARG_OF_PERICENTER": 284.9724,
    "MEAN_ANOMALY": 10.3188,
    "EPHEMERIS_TYPE": 0,
    "CLASSIFICATION_TYPE": "U",
    "NORAD_CAT_ID": 68572,
    "ELEMENT_SET_NO": 999,
    "REV_AT_EPOCH": 1,
    "BSTAR": 0.00035051942,
    "MEAN_MOTION_DOT": -1.541e-05,
    "MEAN_MOTION_DDOT": 0
  },
  {
    "OBJECT_NAME": "KUIPER-00131",
    "OBJECT_ID": "2026-072A",
    "EPOCH": "2026-04-17T05:47:13.270848",
    "MEAN_MOTION": 15.37165271,
    "ECCENTRICITY": 0.00067005,
    "INCLINATION": 51.8684,
    "RA_OF_ASC_NODE": 111.6984,
    "ARG_OF_PERICENTER": 147.517,
    "MEAN_ANOMALY": 212.623,
    "EPHEMERIS_TYPE": 0,
    "CLASSIFICATION_TYPE": "U",
    "NORAD_CAT_ID": 68573,
    "ELEMENT_SET_NO": 999,
    "REV_AT_EPOCH": 200,
    "BSTAR": 0.00022606706,
    "MEAN_MOTION_DOT": 7.976e-05,
    "MEAN_MOTION_DDOT": 0
  },
  {
    "OBJECT_NAME": "KUIPER-00189",
    "OBJECT_ID": "2026-072B",
    "EPOCH": "2026-04-17T06:00:02.999808",
    "MEAN_MOTION": 15.26209455,
    "ECCENTRICITY": 0.00017295,
    "INCLINATION": 51.8802,
    "RA_OF_ASC_NODE": 111.7813,
    "ARG_OF_PERICENTER": 77.8701,
    "MEAN_ANOMALY": 250.9075,
    "EPHEMERIS_TYPE": 0,
    "CLASSIFICATION_TYPE": "U",
    "NORAD_CAT_ID": 68574,
    "ELEMENT_SET_NO": 999,
    "REV_AT_EPOCH": 250,
    "BSTAR": -0.047383194,
    "MEAN_MOTION_DOT": -0.01132937,
    "MEAN_MOTION_DDOT": 0
  },
  {
    "OBJECT_NAME": "KUIPER-00192",
    "OBJECT_ID": "2026-072C",
    "EPOCH": "2026-04-17T05:41:33.228096",
    "MEAN_MOTION": 15.37635108,
    "ECCENTRICITY": 0.00050475,
    "INCLINATION": 51.8736,
    "RA_OF_ASC_NODE": 111.6716,
    "ARG_OF_PERICENTER": 137.7807,
    "MEAN_ANOMALY": 222.3569,
    "EPHEMERIS_TYPE": 0,
    "CLASSIFICATION_TYPE": "U",
    "NORAD_CAT_ID": 68575,
    "ELEMENT_SET_NO": 999,
    "REV_AT_EPOCH": 200,
    "BSTAR": 0.00024141065,
    "MEAN_MOTION_DOT": 8.678e-05,
    "MEAN_MOTION_DDOT": 0
  },
  {
    "OBJECT_NAME": "KUIPER-00193",
    "OBJECT_ID": "2026-072D",
    "EPOCH": "2026-04-17T05:39:37.412352",
    "MEAN_MOTION": 15.37673982,
    "ECCENTRICITY": 0.00033362,
    "INCLINATION": 51.8739,
    "RA_OF_ASC_NODE": 111.6624,
    "ARG_OF_PERICENTER": 124.533,
    "MEAN_ANOMALY": 235.5972,
    "EPHEMERIS_TYPE": 0,
    "CLASSIFICATION_TYPE": "U",
    "NORAD_CAT_ID": 68576,
    "ELEMENT_SET_NO": 999,
    "REV_AT_EPOCH": 200,
    "BSTAR": 0.00024778387,
    "MEAN_MOTION_DOT": 8.928e-05,
    "MEAN_MOTION_DDOT": 0
  },
  {
    "OBJECT_NAME": "KUIPER-00194",
    "OBJECT_ID": "2026-072E",
    "EPOCH": "2026-04-17T05:34:59.035008",
    "MEAN_MOTION": 15.38103656,
    "ECCENTRICITY": 0.00028776,
    "INCLINATION": 51.875,
    "RA_OF_ASC_NODE": 111.6383,
    "ARG_OF_PERICENTER": 120.5813,
    "MEAN_ANOMALY": 239.5459,
    "EPHEMERIS_TYPE": 0,
    "CLASSIFICATION_TYPE": "U",
    "NORAD_CAT_ID": 68577,
    "ELEMENT_SET_NO": 999,
    "REV_AT_EPOCH": 200,
    "BSTAR": 0.00025427859,
    "MEAN_MOTION_DOT": 9.306e-05,
    "MEAN_MOTION_DDOT": 0
  },
  {
    "OBJECT_NAME": "KUIPER-00229",
    "OBJECT_ID": "2026-072F",
    "EPOCH": "2026-04-17T05:49:23.366784",
    "MEAN_MOTION": 15.36936951,
    "ECCENTRICITY": 0.00074987,
    "INCLINATION": 51.8699,
    "RA_OF_ASC_NODE": 111.7084,
    "ARG_OF_PERICENTER": 143.754,
    "MEAN_ANOMALY": 216.3955,
    "EPHEMERIS_TYPE": 0,
    "CLASSIFICATION_TYPE": "U",
    "NORAD_CAT_ID": 68578,
    "ELEMENT_SET_NO": 999,
    "REV_AT_EPOCH": 200,
    "BSTAR": 0.00031514098,
    "MEAN_MOTION_DOT": 0.00011195,
    "MEAN_MOTION_DDOT": 0
  },
  {
    "OBJECT_NAME": "KUIPER-00230",
    "OBJECT_ID": "2026-072G",
    "EPOCH": "2026-04-17T05:30:15.861600",
    "MEAN_MOTION": 15.38393216,
    "ECCENTRICITY": 0.00016293,
    "INCLINATION": 51.8752,
    "RA_OF_ASC_NODE": 111.6144,
    "ARG_OF_PERICENTER": 99.6167,
    "MEAN_ANOMALY": 260.5004,
    "EPHEMERIS_TYPE": 0,
    "CLASSIFICATION_TYPE": "U",
    "NORAD_CAT_ID": 68579,
    "ELEMENT_SET_NO": 999,
    "REV_AT_EPOCH": 200,
    "BSTAR": 0.00025357102,
    "MEAN_MOTION_DOT": 9.369e-05,
    "MEAN_MOTION_DDOT": 0
  },
  {
    "OBJECT_NAME": "KUIPER-00231",
    "OBJECT_ID": "2026-072H",
    "EPOCH": "2026-04-17T05:36:17.658144",
    "MEAN_MOTION": 15.37992903,
    "ECCENTRICITY": 0.00027408,
    "INCLINATION": 51.8733,
    "RA_OF_ASC_NODE": 111.6487,
    "ARG_OF_PERICENTER": 123.0875,
    "MEAN_ANOMALY": 237.0375,
    "EPHEMERIS_TYPE": 0,
    "CLASSIFICATION_TYPE": "U",
    "NORAD_CAT_ID": 68580,
    "ELEMENT_SET_NO": 999,
    "REV_AT_EPOCH": 200,
    "BSTAR": 0.00025464249,
    "MEAN_MOTION_DOT": 9.285e-05,
    "MEAN_MOTION_DDOT": 0
  }
]